[{"OBJECT_NAME":"STARLINK-33603","OBJECT_ID":"2025-053T","EPOCH":"2026-03-09T12:25:57.283104","MEAN_MOTION":15.27642092,"ECCENTRICITY":0.00015688,"INCLINATION":42.9995,"RA_OF_ASC_NODE":243.0323,"ARG_OF_PERICENTER":285.3974,"MEAN_ANOMALY":74.6704,"EPHEMERIS_TYPE":0,"CLASSIFICATION_TYPE":"U","NORAD_CAT_ID":63282,"ELEMENT_SET_NO":999,"REV_AT_EPOCH":5616,"BSTAR":0.0025977267,"MEAN_MOTION_DOT":0.0007206,"MEAN_MOTION_DDOT":0},{"OBJECT_NAME":"FENGYUN 1C DEB","OBJECT_ID":"1999-025AQG","EPOCH":"2026-03-09T10:43:06.043872","MEAN_MOTION":15.25746961,"ECCENTRICITY":0.00178142,"INCLINATION":98.9311,"RA_OF_ASC_NODE":250.2123,"ARG_OF_PERICENTER":328.3876,"MEAN_ANOMALY":31.6286,"EPHEMERIS_TYPE":0,"CLASSIFICATION_TYPE":"U","NORAD_CAT_ID":30674,"ELEMENT_SET_NO":999,"REV_AT_EPOCH":98658,"BSTAR":0.015201752,"MEAN_MOTION_DOT":0.00411052,"MEAN_MOTION_DDOT":0}]
